      2.10          N: GNSS NAV DATA                        RINEX VERSION / TYPE
fic2rin                                 02/08/2024 00:17:55 PGM / RUN BY / DATE
                                                            END OF HEADER
8  24  2  7  1 59 44.0 -.165801960975D-03 -.181898940355D-11  .000000000000D+00
     .950000000000D+02  .124343750000D+03  .434982404477D-08 -.150857588565D+01
     .617280602455D-05  .931957794819D-02  .950135290623D-05  .515359122276D+04
     .266384000000D+06  .409781932831D-07  .294640823044D+01 -.150874257088D-06
     .955166362787D+00  .190968750000D+03  .313561565601D+00 -.785461289044D-08
     .250010413937D-11  .100000000000D+01  .230000000000D+04  .000000000000D+00
     .240000000000D+01  .000000000000D+00  .512227416039D-08  .950000000000D+02
     .259200000000D+06  .400000000000D+01
14 24  2  7  1 59 44.0  .319067388773D-03  .101181285572D-10  .000000000000D+00
     .138000000000D+03  .109375000000D+01  .495163482689D-08  .124683353215D+01
     .819563865662D-07  .393325742334D-02  .826455652714D-05  .515368350029D+04
     .266384000000D+06 -.745058059692D-07  .195761887096D+01  .763684511185D-07
     .946208371182D+00  .212062500000D+03 -.296334535761D+01 -.809426573009D-08
    -.584310053145D-09  .100000000000D+01  .230000000000D+04  .000000000000D+00
     .240000000000D+01  .000000000000D+00 -.791624188423D-08  .906000000000D+03
     .259200000000D+06  .400000000000D+01
29 24  2  7  1 59 44.0 -.607437919825D-03  .682121026330D-12  .000000000000D+00
     .270000000000D+02  .124906250000D+03  .405195449445D-08 -.149181440227D+01
     .640004873276D-05  .257870682981D-02  .857375562191D-05  .515365156555D+04
     .266384000000D+06 -.130385160446D-07  .305405631560D+01  .931322574615D-08
     .973307197969D+00  .225937500000D+03  .250794303376D+01 -.775282293619D-08
     .182150444440D-10  .100000000000D+01  .230000000000D+04  .000000000000D+00
     .240000000000D+01  .000000000000D+00 -.102445483208D-07  .270000000000D+02
     .259200000000D+06  .400000000000D+01
2  24  2  7  2  0  0.0 -.489352270961D-03  .579802872380D-11  .000000000000D+00
     .630000000000D+02  .840937500000D+02  .463340728573D-08 -.117207024497D+01
     .453367829323D-05  .162766122958D-01  .209175050259D-05  .515389279175D+04
     .266400000000D+06 -.374391674995D-06 -.234133863902D+01  .689178705215D-07
     .967598106036D+00  .350187500000D+03 -.124441652377D+01 -.857928593312D-08
     .295012288446D-09  .100000000000D+01  .230000000000D+04  .000000000000D+00
     .240000000000D+01  .000000000000D+00 -.176951289177D-07  .630000000000D+02
     .259200000000D+06  .400000000000D+01
1  24  2  7  2  0  0.0  .168576836586D-03  .136424205266D-11  .000000000000D+00
     .150000000000D+03  .678437500000D+02  .399123767964D-08  .248454827459D+01
     .325031578541D-05  .126923321513D-01  .847503542900D-06  .515400583267D+04
     .266400000000D+06 -.391155481339D-07 -.223708479590D+01 -.156462192535D-06
     .990564677863D+00  .378468750000D+03  .999174620776D+00 -.793175896103D-08
     .167864135072D-09  .100000000000D+01  .230000000000D+04  .000000000000D+00
     .485000000000D+01  .630000000000D+02  .512227416039D-08  .150000000000D+03
     .259200000000D+06  .400000000000D+01
5  24  2  7  2  0  0.0 -.160846393555D-03 -.147792889038D-11  .000000000000D+00
     .470000000000D+02 -.124000000000D+03  .434660962517D-08 -.118004279740D+01
    -.640749931335D-05  .566293520387D-02  .429153442383D-05  .515355838203D+04
     .266400000000D+06 -.130385160446D-07 -.125795624606D+01  .150874257088D-06
     .969542498251D+00  .299562500000D+03  .123404308138D+01 -.814926802115D-08
    -.252510518077D-09  .100000000000D+01  .230000000000D+04  .000000000000D+00
     .240000000000D+01  .000000000000D+00 -.111758708954D-07  .470000000000D+02
     .259200000000D+06  .400000000000D+01
3  24  2  7  2  0  0.0  .176861882210D-03  .245563569479D-10  .000000000000D+00
     .410000000000D+02 -.140312500000D+03  .396552232278D-08  .156647047365D+01
    -.736862421036D-05  .507446017582D-02  .409595668316D-05  .515378973961D+04
     .266400000000D+06 -.931322574615D-07 -.120804881919D+01 -.409781932831D-07
     .982575023919D+00  .312625000000D+03  .107148512098D+01 -.798033241288D-08
    -.234295473633D-09  .100000000000D+01  .230000000000D+04  .000000000000D+00
     .240000000000D+01  .000000000000D+00  .186264514923D-08  .410000000000D+02
     .259200000000D+06  .400000000000D+01
12 24  2  7  2  0  0.0 -.475487671793D-03 -.375166564481D-11  .000000000000D+00
     .430000000000D+02  .107812500000D+02  .447018620120D-08  .124070790209D+01
     .443309545517D-06  .895806588233D-02  .859797000885D-05  .515370947456D+04
     .266400000000D+06 -.108033418655D-06  .200033260298D+01 -.894069671631D-07
     .962898524131D+00  .215656250000D+03  .141054097312D+01 -.793818780024D-08
    -.527521973408D-09  .100000000000D+01  .230000000000D+04  .000000000000D+00
     .240000000000D+01  .000000000000D+00 -.125728547573D-07  .430000000000D+02
     .259200000000D+06  .400000000000D+01
7  24  2  7  2  0  0.0 -.558821484447D-04 -.909494701773D-11  .000000000000D+00
     .970000000000D+02  .149062500000D+02  .503699552537D-08  .194479022048D+01
     .499188899994D-06  .178944631480D-01  .668503344059D-05  .515366246223D+04
     .266400000000D+06 -.290572643280D-06  .884507027497D+00 -.394880771637D-06
     .950194666416D+00  .247156250000D+03 -.215295189587D+01 -.806926468869D-08
     .367158150754D-09  .100000000000D+01  .230000000000D+04  .000000000000D+00
     .240000000000D+01  .000000000000D+00 -.111758708954D-07  .970000000000D+02
     .259200000000D+06  .400000000000D+01
10 24  2  7  2  0  0.0 -.723130069673D-04 -.147792889038D-11  .000000000000D+00
     .950000000000D+02 -.137593750000D+03  .407409827397D-08  .503043965640D+00
    -.702589750290D-05  .931926129851D-02  .474229454994D-05  .515369239426D+04
     .266400000000D+06 -.484287738800D-07 -.121062637259D+01  .117346644402D-06
     .982259650966D+00  .299093750000D+03 -.237986759293D+01 -.812783855710D-08
    -.317156067966D-09  .100000000000D+01  .230000000000D+04  .000000000000D+00
     .240000000000D+01  .000000000000D+00  .232830643654D-08  .950000000000D+02
     .259200000000D+06  .400000000000D+01
6  24  2  7  2  0  0.0  .416846480221D-03 -.144382283906D-10  .000000000000D+00
     .610000000000D+02  .577187500000D+02  .407481258944D-08  .283444002530D+01
     .314414501190D-05  .313828978688D-02  .133737921715D-05  .515356189156D+04
     .266400000000D+06  .633299350739D-07 -.224547570341D+01  .119209289551D-06
     .989681925299D+00  .369156250000D+03 -.778631004261D+00 -.807819363205D-08
     .163935399996D-09  .100000000000D+01  .230000000000D+04  .000000000000D+00
     .240000000000D+01  .000000000000D+00  .372529029846D-08  .610000000000D+02
     .259200000000D+06  .400000000000D+01
4  24  2  7  2  0  0.0  .285403337330D-03  .954969436862D-11  .000000000000D+00
     .550000000000D+02 -.713125000000D+02  .412052877942D-08 -.176607135432D+01
    -.381283462048D-05  .283909146674D-02  .107493251562D-04  .515358877563D+04
     .266400000000D+06  .745058059692D-08 -.128612047951D+00 -.130385160446D-07
     .964682817517D+00  .174781250000D+03 -.298382122802D+01 -.759710216408D-08
     .415731602604D-09  .100000000000D+01  .230000000000D+04  .000000000000D+00
     .240000000000D+01  .000000000000D+00 -.465661287308D-08  .311000000000D+03
     .259200000000D+06  .400000000000D+01
16 24  2  7  2  0  0.0 -.368140172213D-03  .818545231596D-11  .000000000000D+00
     .480000000000D+02  .204687500000D+02  .454554648311D-08 -.513649150337D+00
     .126659870148D-05  .139975637430D-01  .859610736370D-05  .515372404671D+04
     .266400000000D+06  .298023223877D-07  .201832692838D+01  .158324837685D-06
     .962456093817D+00  .214937500000D+03  .822471803481D+00 -.804854954011D-08
    -.556808907612D-09  .100000000000D+01  .230000000000D+04  .000000000000D+00
     .240000000000D+01  .000000000000D+00 -.102445483208D-07  .480000000000D+02
     .259200000000D+06  .400000000000D+01
30 24  2  7  2  0  0.0 -.435844529420D-03  .488853402203D-11  .000000000000D+00
     .290000000000D+02  .170625000000D+02  .543772650314D-08  .183877261018D+01
     .884756445885D-06  .676126813050D-02  .643730163574D-05  .515368621254D+04
     .266400000000D+06 -.184401869774D-06  .886761732431D+00  .577419996262D-07
     .935326912943D+00  .244656250000D+03 -.253777683563D+01 -.838249202158D-08
     .289297764699D-09  .100000000000D+01  .230000000000D+04  .000000000000D+00
     .240000000000D+01  .000000000000D+00  .372529029846D-08  .290000000000D+02
     .259200000000D+06  .400000000000D+01
15 24  2  7  2  0  0.0  .125085469335D-03  .397903932026D-11  .000000000000D+00
     .550000000000D+02 -.825625000000D+02  .465876548485D-08 -.247236612125D+01
    -.428594648838D-05  .154239450349D-01  .108089298010D-04  .515360890198D+04
     .266400000000D+06  .134110450745D-06 -.312241375661D+00 -.689178705215D-07
     .934823457001D+00  .152750000000D+03  .128950375991D+01 -.769567769872D-08
     .368586781690D-09  .100000000000D+01  .230000000000D+04  .000000000000D+00
     .240000000000D+01  .000000000000D+00 -.102445483208D-07  .550000000000D+02
     .259200000000D+06  .400000000000D+01
9  24  2  7  2  0  0.0  .837584957480D-04  .126192389871D-10  .000000000000D+00
     .141000000000D+03 -.767812500000D+02  .432518016111D-08 -.105772402407D+01
    -.405497848988D-05  .280125939753D-02  .108033418655D-04  .515373327446D+04
     .266400000000D+06 -.931322574615D-08 -.187254955121D+00  .372529029846D-08
     .958166348412D+00  .171406250000D+03  .201873392097D+01 -.776853787650D-08
     .345014371233D-09  .100000000000D+01  .230000000000D+04  .000000000000D+00
     .240000000000D+01  .000000000000D+00  .139698386192D-08  .141000000000D+03
     .259200000000D+06  .400000000000D+01
